[{"OBJECT_NAME":"COSMOS 2556","OBJECT_ID":"2022-054A","EPOCH":"2026-03-10T00:10:17.786784","MEAN_MOTION":15.25603379,"ECCENTRICITY":0.00026445,"INCLINATION":97.619,"RA_OF_ASC_NODE":16.747,"ARG_OF_PERICENTER":87.0138,"MEAN_ANOMALY":273.1402,"EPHEMERIS_TYPE":0,"CLASSIFICATION_TYPE":"U","NORAD_CAT_ID":52713,"ELEMENT_SET_NO":999,"REV_AT_EPOCH":21161,"BSTAR":0.00015936962,"MEAN_MOTION_DOT":3.973e-5,"MEAN_MOTION_DDOT":0},{"OBJECT_NAME":"COSMOS 2251 DEB","OBJECT_ID":"1993-036BXP","EPOCH":"2026-03-04T07:23:49.847712","MEAN_MOTION":15.24789556,"ECCENTRICITY":0.00190834,"INCLINATION":73.9759,"RA_OF_ASC_NODE":64.3004,"ARG_OF_PERICENTER":239.4537,"MEAN_ANOMALY":120.4779,"EPHEMERIS_TYPE":0,"CLASSIFICATION_TYPE":"U","NORAD_CAT_ID":47059,"ELEMENT_SET_NO":999,"REV_AT_EPOCH":9543,"BSTAR":0.0048704033,"MEAN_MOTION_DOT":0.00123422,"MEAN_MOTION_DDOT":0}]
